STARLINK-6221           
1 56484U 23064AN  26068.57220272  .00000456  00000+0  46007-4 0  9996
2 56484  69.9990 124.6773 0003403 267.1667  92.9103 14.98334735155716
LEMUR-2-BALTO           
1 63395U 25052BH  26068.69493058  .00007621  00000+0  63456-3 0  9998
2 63395  97.6978 323.5166 0002279 359.2852   0.8367 14.98934076 53850
